CUBEBUG-2 (LO-74)       
1 39440U 13066AA  26197.80263671  .00002156  00000+0  20214-3 0  9999
2 39440  97.8917 146.9130 0055539 289.9004  69.6236 14.93973680681418
FUNCUBE-1 (AO-73)       
1 39444U 13066AE  26197.88324087  .00004077  00000+0  25213-3 0  9998
2 39444  97.8292 169.9592 0037941 102.2043 258.3439 15.09830753684148
UWE-3                   
1 39446U 13066AG  26197.82397772  .00002047  00000+0  17840-3 0  9997
2 39446  97.8716 154.1042 0047571 218.9248 140.8545 14.97205791682010
UNISAT-6                
1 40012U 14033C   26197.91669845  .00001066  00000+0  11919-3 0  9997
2 40012  97.7911 350.1131 0044049 331.9914  27.8933 14.88370346650588
DUCHIFAT-1              
1 40021U 14033M   26197.69874411  .00099153  00000+0  77546-3 0  9991
2 40021  98.0414 261.1627 0002787 236.8489 123.2505 15.71313651660377
QB50P1                  
1 40025U 14033R   26197.60588384  .00004288  00000+0  21031-3 0  9990
2 40025  98.0963 210.8240 0010431 120.5690 239.6573 15.18678566657496
LILACSAT-2              
1 40908U 15049K   26198.18988997  .00010529  00000+0  17391-3 0  9995
2 40908  97.4622 236.1867 0008504 135.6290 224.5645 15.52404529600404
FOX-1A (AO-85)          
1 40967U 15058D   26197.32760414  .00001582  00000+0  15016-3 0  9998
2 40967  64.7725 188.4142 0132456  45.3781 315.8042 14.91092003117917
CAS-2T & KS-1Q          
1 41847U 16066G   26198.15953041  .00000472  00000+0  74643-4 0  9997
2 41847  98.3813 273.5527 0342144  38.8094 323.7141 14.44772533509127
RADFXSAT (FOX-1B)       
1 43017U 17073E   26198.10306236  .00004326  00000+0  18980-3 0  9993
2 43017  97.4662  64.7083 0148314 224.8184 134.0992 15.13077780469915
DIWATA-2B               
1 43678U 18084H   26198.17809909  .00001084  00000+0  91024-4 0  9990
2 43678  98.1210  35.6997 0012722  78.2529 282.0120 15.00567760420713
ES'HAIL 2               
1 43700U 18090A   26198.13041647  .00000134  00000+0  00000+0 0  9990
2 43700   0.0135  64.9431 0002296  93.9394 208.7946  1.00272026 27979
FOX-1CLIFF (AO-95)      
1 43770U 18099N   26198.15550847  .00005777  00000+0  21872-3 0  9997
2 43770  97.4364 258.3011 0007413 231.7430 128.3143 15.27297628417790
ITASAT                  
1 43786U 18099AE  26198.12176822  .00003185  00000+0  15348-3 0  9990
2 43786  97.4008 249.0402 0010969 242.8009 117.2109 15.19395297417452
JY1SAT (JO-97)          
1 43803U 18099AX  26197.70840267  .00010103  00000+0  30396-3 0  9992
2 43803  97.4110 260.6613 0006995 153.6431 206.5169 15.34550143418157
UWE-4                   
1 43880U 18111E   26197.77458578  .00021334  00000+0  41089-3 0  9998
2 43880  97.5845 127.5685 0006445 188.3610 171.7533 15.47882979415358
TIANYAN 01              
1 44881U 19093C   26198.20030397 -.00000104  00000+0 -57237-5 0  9992
2 44881  97.7522 269.6989 0013404 354.8082   5.2993 14.86559898355879
RS-44 & BREEZE-KM R/B   
1 44909U 19096E   26197.87016072  .00000018  00000+0  21785-4 0  9992
2 44909  82.5243 319.9815 0218517  75.0939 287.4247 12.79748900306140
SALSAT                  
1 46495U 20068K   26197.90294493  .00003936  00000+0  13754-3 0  9992
2 46495  97.8857 202.7868 0009381 186.6655 173.4461 15.30185999319903
XW-3 (CAS-9)            
1 50466U 21131B   26198.18224815  .00000108  00000+0  46833-4 0  9992
2 50466  98.4993 290.4101 0004454  25.5674 334.5735 14.41382239239436
GREENCUBE (IO-117)      
1 53109U 22080E   26197.28830747 -.00000003  00000+0  00000+0 0  9996
2 53109  70.1408 288.1261 0009080 283.0875  76.8771  6.42583343 93936
UMKA 1 (RS40S)          
1 57172U 23091G   26198.02779762  .00003089  00000+0  14167-3 0  9994
2 57172  97.5032 256.6138 0012859  23.3999 336.7819 15.21132863168544
CUBESX-HSE 3 (RS42S)    
1 57178U 23091N   26198.16204096  .00006765  00000+0  22189-3 0  9995
2 57178  97.5073 264.1407 0009466 354.7879   5.3262 15.31912821169011
MONITOR-3 (RS58S)       
1 57180U 23091Q   26198.18863715  .00005476  00000+0  20056-3 0  9998
2 57180  97.5065 261.8641 0010768   2.6877 357.4418 15.28394908168876
MONITOR-4 (RS57S)       
1 57182U 23091S   26198.16602064  .00005335  00000+0  19495-3 0  9995
2 57182  97.5058 261.8142 0010778   2.9901 357.1400 15.28481630168875
MONITOR-2 (RS39S)       
1 57184U 23091U   26198.15300131  .00002370  00000+0  11588-3 0  9997
2 57184  97.5053 256.2443 0011181  17.4381 342.7235 15.19164167168505
SVYATOBOR 1 (RS60S)     
1 57187U 23091X   26198.14023957  .00004720  00000+0  18038-3 0  9995
2 57187  97.5072 262.1303 0008549 357.6450   2.4747 15.27081878168885
VIZARD-METEO (RS38S)    
1 57189U 23091Z   26198.17034822  .00008781  00000+0  24552-3 0  9992
2 57189  97.5074 268.2740 0005502 331.2823  28.8117 15.36911523169297
POLYTECH-UNIVERSE 3 (R*)
1 57191U 23091AB  26198.17611000  .00002631  00000+0  12729-3 0  9995
2 57191  97.5030 255.7715 0015895  31.2078 329.0097 15.19377121168507
UTMN 2 (RS27S)          
1 57203U 23091AP  26198.16349002  .00006485  00000+0  20762-3 0  9995
2 57203  97.5069 265.8124 0006539 342.5616  17.5400 15.32729298169138
